INTELSAT 21 (IS-21)     
1 38749U 12045A   26169.88338295 -.00000291  00000+0  00000+0 0  9994
2 38749   0.0181   6.9619 0001387  90.8469  69.3201  1.00272539 50543
INTELSAT 23 (IS-23)     
1 38867U 12057A   26169.88442295 -.00000291  00000+0  00000+0 0  9994
2 38867   0.0104 321.9376 0000155  69.5371 141.0158  1.00267436 49970
FM-6                    
1 39360U 13058A   26169.51541316  .00000000  00000+0  00000+0 0  9996
2 39360   0.0333  48.8344 0003221 148.7006 138.4746  1.00287718 46082
INTELSAT 30 (IS-30)     
1 40271U 14062A   26169.87610292 -.00000157  00000+0  00000+0 0  9998
2 40271   0.0285  55.4633 0001425 325.4632 106.5229  1.00270916  6810
DIRECTV 14              
1 40333U 14078B   26169.65710524 -.00000132  00000+0  00000+0 0  9992
2 40333   0.0104   8.1118 0000506 318.6715  77.4309  1.00271140 42058
DIRECTV 15              
1 40663U 15026A   26169.66061771 -.00000108  00000+0  00000+0 0  9999
2 40663   0.0149  54.4783 0000380 269.3801  77.9614  1.00267904 40474
SKY MEXICO-1            
1 40664U 15026B   26169.87930959 -.00000241  00000+0  00000+0 0  9994
2 40664   0.0130  49.1900 0002050  54.6826  40.9853  1.00272454 40476
INTELSAT 34 (IS-34)     
1 40874U 15039A   26169.88390295 -.00000292  00000+0  00000+0 0  9991
2 40874   0.0092  10.5954 0000406 322.4879 196.7394  1.00269360 39654
INTELSAT 31 (IS-31)     
1 41581U 16035A   26169.51957318 -.00000157  00000+0  00000+0 0  9999
2 41581   0.0156 292.5842 0000915 320.2559 105.9081  1.00273052 36694
INTELSAT 36 (IS-36)     
1 41747U 16053A   26169.55181333 -.00000031  00000+0  00000+0 0  9994
2 41747   0.0144  19.7909 0002081 313.7201 200.4230  1.00271248 35977
INTELSAT 32E (IS-32E)   
1 41945U 17007B   26169.81504402 -.00000275  00000+0  00000+0 0  9999
2 41945   0.0171   6.9156 0000817 322.0507 188.3100  1.00271005 34246
INTELSAT 35E (IS-35E)   
1 42818U 17041A   26169.88808769  .00000000  00000+0  00000+0 0  9992
2 42818   0.0196  12.4030 0002003  76.3181 103.6174  1.00270832 32833
INTELSAT 37E (IS-37E)   
1 42950U 17059A   26169.89133267 -.00000147  00000+0  00000+0 0  9996
2 42950   0.0181  18.2362 0002563  94.4227  97.3535  1.00271115 32081
AZERSPACE 2 (IS-38)     
1 43632U 18074A   26169.90383876  .00000130  00000+0  00000+0 0  9998
2 43632   0.0173  14.6973 0001498  84.9449 177.9809  1.00273868 28467
HORIZONS-3E             
1 43633U 18074B   26169.64319762 -.00000037  00000+0  00000+0 0  9990
2 43633   0.0047 132.2714 0000757 140.4157  34.7443  1.00271097 28353
AT&T T-16               
1 44333U 19034A   26169.87471625 -.00000122  00000+0  00000+0 0  9992
2 44333   0.0226  66.9403 0000809 239.0528 175.1501  1.00271203 25657
INTELSAT 39 (IS-39)     
1 44476U 19049B   26169.85152115  .00000000  00000+0  00000+0 0  9998
2 44476   0.0202   5.6567 0000964 335.0768 294.8600  1.00278319 25143
GALAXY 30 (G-30)        
1 46114U 20056C   26169.65628435  .00000030  00000+0  00000+0 0  9993
2 46114   0.0165 349.8313 0002166  96.1871 292.1283  1.00272111 21306
GALAXY 33 (G-33)        
1 54026U 22128A   26169.65463767  .00000073  00000+0  00000+0 0  9998
2 54026   0.0170  41.7539 0001644  41.3254 286.4803  1.00269650 13756
GALAXY 34 (G-34)        
1 54027U 22128B   26169.64307292  .00000052  00000+0  00000+0 0  9995
2 54027   0.0104  30.3042 0001513  67.6466 271.4326  1.00274211 13920
GALAXY 31 (G-31)        
1 54243U 22153A   26169.65706435  .00000007  00000+0  00000+0 0  9996
2 54243   0.0174  73.8851 0001089   4.3963 304.1396  1.00271570  7148
GALAXY 32 (G-32)        
1 54244U 22153B   26169.59166903 -.00000181  00000+0  00000+0 0  9994
2 54244   0.0111  25.1390 0002080   9.2508 354.4398  1.00271685 13154
GALAXY 35 (G-35)        
1 54741U 22170A   26169.87644958 -.00000169  00000+0  00000+0 0  9993
2 54741   0.0141  48.1540 0001813  35.7239  45.6394  1.00271943 12914
GALAXY 36 (G-36)        
1 54742U 22170B   26169.87722959 -.00000192  00000+0  00000+0 0  9998
2 54742   0.0138 178.0329 0002511 265.5421  50.3337  1.00272546 12797
GALAXY 37 (G-37)        
1 57493U 23112A   26169.65585102  .00000042  00000+0  00000+0 0  9997
2 57493   0.0185 340.0371 0001893 104.8050 291.1539  1.00269676 10559
